NORAD_CAT_ID,OBJECT_NAME,OBJECT_TYPE,EPOCH,MEAN_MOTION,ECCENTRICITY,INCLINATION,RA_OF_ASC_NODE,ARG_OF_PERICENTER,MEAN_ANOMALY,BSTAR,MEAN_MOTION_DOT,MEAN_MOTION_DDOT,TLE_LINE0,TLE_LINE1,TLE_LINE2,SEMIMAJOR_AXIS,PERIOD,APOGEE,PERIGEE,DECAYED
52702.0,STARLINK-4033,PAYLOAD,2022-05-24 16:00:00,15.80454161,0.0001654,53.2162,267.0551,42.9078,153.5127,-0.0041338,-0.00736209,0.0,0 STARLINK-4033,1 52702U 22017AY  22144.66667824 -.00736209  00000-0 -41338-2 0  9996,2 52702  53.2162 267.0551 0001654  42.9078 153.5127 15.80454161  1302,6707.292,91.113,330.267,328.048,0.0
52702.0,STARLINK-4033,PAYLOAD,2022-05-24 22:00:00,15.800928699999998,0.0001555,53.2171,265.8053,38.3813,141.094,-0.0051071999999999,-0.00879476,0.0,0 STARLINK-4033,1 52702U 22053AY  22144.91667824 -.00879476  00000-0 -51072-2 0  9994,2 52702  53.2171 265.8053 0001555  38.3813 141.0940 15.80092870  1301,6708.315,91.134,331.223,329.13699999999994,0.0
52702.0,STARLINK-4033,PAYLOAD,2022-05-25 04:00:00,15.79617325,0.0001635,53.2174,264.5542,34.3479,127.8179,-0.0051747,-0.00872542,0.0,0 STARLINK-4033,1 52702U 22053AY  22145.16667824 -.00872542  00000-0 -51747-2 0  9998,2 52702  53.2174 264.5542 0001635  34.3479 127.8179 15.79617325  1375,6709.661,91.161,332.6230000000001,330.4290000000001,0.0
52702.0,STARLINK-4033,PAYLOAD,2022-05-25 14:00:01,15.78834396,0.0001981,53.2175,262.4755,21.7273,350.6384,-0.0054052,-0.00878799,0.0,0 STARLINK-4033,1 52702U 22053AY  22145.58334491 -.00878799  00000-0 -54052-2 0  9997,2 52702  53.2175 262.4755 0001981  21.7273 350.6384 15.78834396  1300,6711.879,91.207,335.074,332.414,0.0
52702.0,STARLINK-4033,PAYLOAD,2022-05-25 20:00:01,15.78361927,0.0001369,53.2171,261.2288,37.4009,316.5186,-0.0055083999999999,-0.0087652999999999,0.0,0 STARLINK-4033,1 52702U 22053AY  22145.83334491 -.00876530  00000-0 -55084-2 0  9992,2 52702  53.2171 261.2288 0001369  37.4009 316.5186 15.78361927  1480,6713.218000000003,91.234,336.0019999999999,334.164,0.0
52702.0,STARLINK-4033,PAYLOAD,2022-05-25 22:00:00,15.78204093,0.0001482,53.2171,260.8126,37.4834,70.1941,-0.0055497,-0.00876815,0.0,0 STARLINK-4033,1 52702U 22053AY  22145.91667824 -.00876815  00000-0 -55497-2 0  9994,2 52702  53.2171 260.8126 0001482  37.4834  70.1941 15.78204093  1301,6713.666,91.243,336.526,334.536,0.0
52702.0,STARLINK-4033,PAYLOAD,2022-05-26 14:00:01,15.76945717,0.0001857,53.2172,257.4925,27.6927,268.338,-0.0058766,-0.00877379,0.0,0 STARLINK-4033,1 52702U 22053AY  22146.58334491 -.00877379  00000-0 -58766-2 0  9997,2 52702  53.2172 257.4925 0001857  27.6927 268.3380 15.76945717  1302,6717.236999999999,91.316,340.35,337.855,0.0
52702.0,STARLINK-4033,PAYLOAD,2022-05-26 18:50:06,15.76608462,0.0001739,53.2109,256.4831,49.8388,310.2786,-0.0019496,-0.00306883,0.0,0 STARLINK-4033,1 52702U 22053AY  22146.78480050 -.00306883  00000-0 -19496-2 0  9996,2 52702  53.2109 256.4831 0001739  49.8388 310.2786 15.76608462  1639,6718.195,91.335,341.228,338.892,0.0
52702.0,STARLINK-4033,PAYLOAD,2022-05-26 22:00:00,15.7631624,0.0001418,53.2173,255.8342,35.4627,353.6106,-0.0060348,-0.00876012,0.0,0 STARLINK-4033,1 52702U 22053AY  22146.91667824 -.00876012  00000-0 -60348-2 0  9995,2 52702  53.2173 255.8342 0001418  35.4627 353.6106 15.76316240  1302,6719.025,91.352,341.843,339.9380000000001,0.0
52702.0,STARLINK-4033,PAYLOAD,2022-05-27 04:00:00,15.75842396,0.0001592,53.2174,254.5902,28.1667,340.1941,-0.0061443,-0.00873651,0.0,0 STARLINK-4033,1 52702U 22053AY  22147.16667824 -.00873651  00000-0 -61443-2 0  9996,2 52702  53.2174 254.5902 0001592  28.1667 340.1941 15.75842396  1692,6720.371999999999,91.38,343.307,341.167,0.0
52702.0,STARLINK-4033,PAYLOAD,2022-05-27 14:00:01,15.75056528,0.0002235,53.2175,252.5233,22.8189,190.0711,-0.0063669,-0.00874588,0.0,0 STARLINK-4033,1 52702U 22053AY  22147.58334491 -.00874588  00000-0 -63669-2 0  9995,2 52702  53.2175 252.5233 0002235  22.8189 190.0711 15.75056528  1302,6722.607,91.425,345.975,342.97,0.0
52702.0,STARLINK-4033,PAYLOAD,2022-05-27 22:00:01,15.74429056,0.0001484,53.2172,250.8693,38.4539,265.2752,-0.0065668,-0.00877021,0.0,0 STARLINK-4033,1 52702U 22053AY  22147.91668981 -.00877021  00000-0 -65668-2 0  9992,2 52702  53.2172 250.8693 0001484  38.4539 265.2752 15.74429056  1306,6724.393,91.462,347.256,345.26,0.0
52702.0,STARLINK-4033,PAYLOAD,2022-05-28 04:00:00,15.73926946,0.0001426999999999,53.2172,249.629,44.3762,236.8789,-0.0061659,-0.0081202,0.0,0 STARLINK-4033,1 52702U 22053AY  22148.16667824 -.00812020  00000-0 -61659-2 0  9999,2 52702  53.2172 249.6290 0001427  44.3762 236.8789 15.73926946  1859,6725.823,91.491,348.648,346.72900000000016,0.0
52702.0,STARLINK-4033,PAYLOAD,2022-05-28 12:00:00,15.73219835,0.0001693,53.2172,247.98,35.2499,335.4572,-0.00018817,-0.00026968,0.0,0 STARLINK-4033,1 52702U 22053AY  22148.50001157 -.00026968  00000-0 -18817-3 0  9995,2 52702  53.2172 247.9800 0001693  35.2499 335.4572 15.73219835  1902,6727.839,91.532,350.843,348.565,0.0
52702.0,STARLINK-4033,PAYLOAD,2022-05-28 14:00:01,15.73205996,0.0001784,53.2172,247.5681,33.6898,89.2567,-2.4033e-05,-3.993e-05,0.0,0 STARLINK-4033,1 52702U 22053AY  22148.58334491 -.00003993  00000-0 -24033-4 0  9994,2 52702  53.2172 247.5681 0001784  33.6898  89.2567 15.73205996  1306,6727.878000000002,91.533,350.9430000000001,348.543,0.0
52702.0,STARLINK-4033,PAYLOAD,2022-05-28 22:00:00,15.73274296,0.0001474,53.2153,245.9145,24.9815,186.9061,-0.00050727,-0.00071438,0.0,0 STARLINK-4033,1 52702U 22053AY  22148.91667824 -.00071438  00000-0 -50727-3 0  9997,2 52702  53.2153 245.9145 0001474  24.9815 186.9061 15.73274296  1976,6727.683000000001,91.529,350.54,348.557,0.0
52702.0,STARLINK-4033,PAYLOAD,2022-05-29 04:00:00,15.73258073,0.0001509,53.215,244.6737,29.2692,159.3563,-2.6296e-05,-4.319e-05,0.0,0 STARLINK-4033,1 52702U 22053AY  22149.16667824 -.00004319  00000-0 -26296-4 0  9994,2 52702  53.2150 244.6737 0001509  29.2692 159.3563 15.73258073  2018,6727.73,91.53,350.61,348.579,0.0
52702.0,STARLINK-4033,PAYLOAD,2022-05-29 12:00:00,15.73225688,0.0001768,53.2149,243.026,29.2571,248.3505,-0.00052049,-0.0007312,0.0,0 STARLINK-4033,1 52702U 22053AY  22149.50001157 -.00073120  00000-0 -52049-3 0  9993,2 52702  53.2149 243.0260 0001768  29.2571 248.3505 15.73225688  2069,6727.821999999999,91.532,350.876,348.497,0.0
52702.0,STARLINK-4033,PAYLOAD,2022-05-29 14:00:01,15.73186749,0.0001802,53.215,242.614,28.8369,1.015,-2.5465e-05,-4.191e-05,0.0,0 STARLINK-4033,1 52702U 22053AY  22149.58334491 -.00004191  00000-0 -25465-4 0  9996,2 52702  53.2150 242.6140 0001802  28.8369   1.0150 15.73186749  1302,6727.933000000001,91.534,351.01,348.586,0.0
52702.0,STARLINK-4033,PAYLOAD,2022-05-29 19:58:21,15.73285532,8.23e-05,53.2113,241.3801,198.7319,161.3671,0.00063797,0.00090212,0.0,0 STARLINK-4033,1 52702U 22053AY  22149.83219871  .00090212  00000-0  63797-3 0  9994,2 52702  53.2113 241.3801 0000823 198.7319 161.3671 15.73285532  2528,6727.651,91.528,350.07,348.963,0.0
52702.0,STARLINK-4033,PAYLOAD,2022-05-29 20:00:01,15.73215142,0.0001855,53.2143,241.3765,25.5761,340.9475,-0.00037412,-0.00052835,0.0,0 STARLINK-4033,1 52702U 22053AY  22149.83334491 -.00052835  00000-0 -37412-3 0  9996,2 52702  53.2143 241.3765 0001855  25.5761 340.9475 15.73215142  2116,6727.852,91.532,350.965,348.469,0.0
52702.0,STARLINK-4033,PAYLOAD,2022-05-30 04:00:00,15.73146209,0.0001689,53.2145,239.7253,35.9778,59.4842,0.00056225,0.00078851,0.0,0 STARLINK-4033,1 52702U 22053AY  22150.16667824  .00078851  00000-0  56225-3 0  9990,2 52702  53.2145 239.7253 0001689  35.9778  59.4842 15.73146209  2161,6728.049,91.536,351.05,348.777,0.0
52702.0,STARLINK-4033,PAYLOAD,2022-05-30 12:44:40,15.73167318,0.0001314,53.2131,237.9218,56.9771,303.1375,-4.7548e-05,-7.278e-05,0.0,0 STARLINK-4033,1 52702U 22053AY  22150.53102805 -.00007278  00000-0 -47548-4 0  9990,2 52702  53.2131 237.9218 0001314  56.9771 303.1375 15.73167318  2634,6727.988,91.535,350.737,348.969,0.0
52702.0,STARLINK-4033,PAYLOAD,2022-05-30 12:44:42,15.73052053,0.0001941,53.2128,237.9218,5.1023,355.0016,-0.00078928,-0.00109281,0.0,0 STARLINK-4033,1 52702U 22053AY  22150.53104182 -.00109281  00000-0 -78928-3 0  9992,2 52702  53.2128 237.9218 0001941   5.1023 355.0016 15.73052053  2224,6728.316999999999,91.542,351.48800000000006,348.876,0.0
52702.0,STARLINK-4033,PAYLOAD,2022-05-30 20:22:04,15.73225075,7.780000000000001e-05,53.2131,236.3501,85.1596,274.9513,0.00027595,0.00038326,0.0,0 STARLINK-4033,1 52702U 22053AY  22150.84866064  .00038326  00000-0  27595-3 0  9993,2 52702  53.2131 236.3501 0000778  85.1596 274.9513 15.73225075  2278,6727.824000000001,91.532,350.212,349.165,0.0
52702.0,STARLINK-4033,PAYLOAD,2022-05-30 22:00:00,15.73266173,0.000185,53.2147,236.0152,27.2599,358.2575,-0.00058934,-0.00082761,0.0,0 STARLINK-4033,1 52702U 22053AY  22150.91667824 -.00082761  00000-0 -58934-3 0  9999,2 52702  53.2147 236.0152 0001850  27.2599 358.2575 15.73266173  1307,6727.706999999999,91.529,350.816,348.327,0.0
52702.0,STARLINK-4033,PAYLOAD,2022-05-31 04:00:00,15.73169661,0.0001754999999999,53.2148,234.7769,29.4197,332.8262,0.0005982,0.0008407,0.0,0 STARLINK-4033,1 52702U 22053AY  22151.16667824  .00084070  00000-0  59820-3 0  9995,2 52702  53.2148 234.7769 0001755  29.4197 332.8262 15.73169661  2327,6727.982,91.535,351.027,348.666,0.0
52702.0,STARLINK-4033,PAYLOAD,2022-05-31 05:30:57,15.73224213,0.0001946,53.2145,234.4647,37.404,322.7115,0.00013197,0.0001796,0.0,0 STARLINK-4033,1 52702U 22053AY  22151.22983173  .00017960  00000-0  13197-3 0  9991,2 52702  53.2145 234.4647 0001946  37.4040 322.7115 15.73224213  2740,6727.826,91.532,351.0,348.38199999999995,0.0
52702.0,STARLINK-4033,PAYLOAD,2022-05-31 11:36:52,15.73217996,0.0001951,53.2146,233.2074,33.0815,327.0327,9.6763e-05,0.00012991,0.0,0 STARLINK-4033,1 52702U 22053AY  22151.48394303  .00012991  00000-0  96763-4 0  9990,2 52702  53.2146 233.2074 0001951  33.0815 327.0327 15.73217996  2372,6727.844,91.532,351.021,348.396,0.0
